NORAD_CAT_ID,OBJECT_NAME,OBJECT_TYPE,EPOCH,MEAN_MOTION,ECCENTRICITY,INCLINATION,RA_OF_ASC_NODE,ARG_OF_PERICENTER,MEAN_ANOMALY,BSTAR,MEAN_MOTION_DOT,MEAN_MOTION_DDOT,TLE_LINE0,TLE_LINE1,TLE_LINE2,SEMIMAJOR_AXIS,PERIOD,APOGEE,PERIGEE,DECAYED
53724.0,STARLINK-4663,PAYLOAD,2023-05-16 13:24:41,15.08841211,0.0001101,53.2142,189.3762,81.3205,278.7912,0.00014123,1.961e-05,0.0,0 STARLINK-4663,1 53724U 22107AA  23136.55881155  .00001961  00000-0  14123-3 0  9997,2 53724  53.2142 189.3762 0001101  81.3205 278.7912 15.08841211 38747,6917.877,95.437,540.503,538.98,0.0
53724.0,STARLINK-4663,PAYLOAD,2023-05-17 13:15:28,15.08844339,0.0001089,53.2148,184.9147,93.668,266.4436,5.5041e-05,5.88e-06,0.0,0 STARLINK-4663,1 53724U 22107AA  23137.55240770  .00000588  00000-0  55041-4 0  9999,2 53724  53.2148 184.9147 0001089  93.6680 266.4436 15.08844339 39356,6917.867,95.437,540.485,538.979,0.0
53724.0,STARLINK-4663,PAYLOAD,2023-05-18 01:58:33,15.08833973,0.0001125,53.2146,182.535,97.6289,262.483,5.2829e-05,5.53e-06,0.0,0 STARLINK-4663,1 53724U 22107AA  23138.08233439  .00000553  00000-0  52829-4 0  9995,2 53724  53.2146 182.5350 0001125  97.6289 262.4830 15.08833973 38977,6917.899,95.438,540.542,538.986,0.0
53724.0,STARLINK-4663,PAYLOAD,2023-05-18 13:06:15,15.08836635,0.0001122,53.2151,180.4542,91.3597,268.7523,3.4173e-05,2.56e-06,0.0,0 STARLINK-4663,1 53724U 22107AA  23138.54601368  .00000256  00000-0  34173-4 0  9998,2 53724  53.2151 180.4542 0001122  91.3597 268.7523 15.08836635 39509,6917.891,95.438,540.532,538.979,0.0
53724.0,STARLINK-4663,PAYLOAD,2023-05-18 19:27:48,15.08837284,0.0001124,53.2151,179.2649,87.0009,273.1112,3.1781e-05,2.18e-06,0.0,0 STARLINK-4663,1 53724U 22107AA  23138.81097380  .00000218  00000-0  31781-4 0  9991,2 53724  53.2151 179.2649 0001124  87.0009 273.1112 15.08837284 39544,6917.889,95.438,540.531,538.976,0.0
53724.0,STARLINK-4663,PAYLOAD,2023-05-19 08:10:53,15.08836144,0.0001141,53.2152,176.8861,90.8718,269.2405,2.281e-05,7.5e-07,0.0,0 STARLINK-4663,1 53724U 22107AA  23139.34089570  .00000075  00000-0  22810-4 0  9996,2 53724  53.2152 176.8861 0001141  90.8718 269.2405 15.08836144 39165,6917.892,95.438,540.547,538.968,0.0
53724.0,STARLINK-4663,PAYLOAD,2023-05-19 19:18:35,15.08836091,0.0001143,53.2156,174.8045,88.9319,271.1804,3.2536e-05,2.3e-06,0.0,0 STARLINK-4663,1 53724U 22107AA  23139.80457642  .00000230  00000-0  32536-4 0  9995,2 53724  53.2156 174.8045 0001143  88.9319 271.1804 15.08836091 39692,6917.892,95.438,540.548,538.967,0.0
53724.0,STARLINK-4663,PAYLOAD,2023-05-20 09:37:03,15.08839045,0.0001122,53.2156,172.1284,88.0711,272.0409,7.8084e-05,9.55e-06,0.0,0 STARLINK-4663,1 53724U 22107AA  23140.40073550  .00000955  00000-0  78084-4 0  9997,2 53724  53.2156 172.1284 0001122  88.0711 272.0409 15.08839045 39325,6917.883,95.438,540.524,538.972,0.0
53724.0,STARLINK-4663,PAYLOAD,2023-05-20 19:09:21,15.08845034,0.000115,53.2158,170.3442,86.6755,273.4369,0.00012075,1.635e-05,0.0,0 STARLINK-4663,1 53724U 22107AA  23140.79817070  .00001635  00000-0  12075-3 0  9995,2 53724  53.2158 170.3442 0001150  86.6755 273.4369 15.08845034 39848,6917.865,95.437,540.526,538.934,0.0
53724.0,STARLINK-4663,PAYLOAD,2023-05-21 07:52:26,15.0884942,0.0001147,53.2157,167.9651,86.6562,273.4561,0.00016209,2.293e-05,0.0,0 STARLINK-4663,1 53724U 22107AA  23141.32808618  .00002293  00000-0  16209-3 0  9997,2 53724  53.2157 167.9651 0001147  86.6562 273.4561 15.08849420 39468,6917.852,95.437,540.51,538.923,0.0
53724.0,STARLINK-4663,PAYLOAD,2023-05-21 11:03:12,15.08851284,0.0001162,53.2157,167.3704,86.512,273.6005,0.00017605,2.516e-05,0.0,0 STARLINK-4663,1 53724U 22107AA  23141.46056451  .00002516  00000-0  17605-3 0  9991,2 53724  53.2157 167.3704 0001162  86.5120 273.6005 15.08851284 39946,6917.846,95.437,540.515,538.907,0.0
53724.0,STARLINK-4663,PAYLOAD,2023-05-21 19:00:09,15.08843008,0.0001154,53.2158,165.8838,85.9398,274.1726,0.00010237,1.342e-05,0.0,0 STARLINK-4663,1 53724U 22107AA  23141.79177128  .00001342  00000-0  10237-3 0  9992,2 53724  53.2158 165.8838 0001154  85.9398 274.1726 15.08843008 39535,6917.871,95.437,540.535,538.938,0.0
53724.0,STARLINK-4663,PAYLOAD,2023-05-22 07:43:14,15.08840585,0.0001504,53.2143,163.5051,86.7498,273.3666,6.3817e-05,7.28e-06,0.0,0 STARLINK-4663,1 53724U 22107AA  23142.32169360  .00000728  00000-0  63817-4 0  9991,2 53724  53.2143 163.5051 0001504  86.7498 273.3666 15.08840585 40072,6917.879,95.438,540.784,538.703,0.0
53724.0,STARLINK-4663,PAYLOAD,2023-05-22 18:50:56,15.08837669,0.0001139,53.2146,161.4221,95.6042,264.508,-2.7767e-06,-3.32e-06,0.0,0 STARLINK-4663,1 53724U 22107AA  23142.78537595 -.00000332  00000-0 -27767-5 0  9998,2 53724  53.2146 161.4221 0001139  95.6042 264.5080 15.08837669 39685,6917.888,95.438,540.54,538.965,0.0
53724.0,STARLINK-4663,PAYLOAD,2023-05-23 07:34:01,15.08843757,0.0001142,53.2155,159.0417,104.7223,255.3896,2.5159e-05,1.13e-06,0.0,0 STARLINK-4663,1 53724U 22107AA  23143.31529295  .00000113  00000-0  25159-4 0  9993,2 53724  53.2155 159.0417 0001142 104.7223 255.3896 15.08843757 40222,6917.869,95.437,540.524,538.944,0.0
53724.0,STARLINK-4663,PAYLOAD,2023-05-24 10:35:35,15.0883829,0.0001024,53.2155,153.9893,83.1084,277.0024,0.00012526,1.706e-05,0.0,0 STARLINK-4663,1 53724U 22107AA  23144.44137798  .00001706  00000-0  12526-3 0  9993,2 53724  53.2155 153.9893 0001024  83.1084 277.0024 15.08838290 39933,6917.886,95.438,540.459,539.042,0.0
53724.0,STARLINK-4663,PAYLOAD,2023-05-26 03:55:36,15.08837787,0.0001396,53.2148,146.2546,117.7315,242.3818,5.4058e-05,5.72e-06,0.0,0 STARLINK-4663,1 53724U 22107AA  23146.16361937  .00000572  00000-0  54058-4 0  9995,2 53724  53.2148 146.2546 0001396 117.7315 242.3818 15.08837787 40194,6917.887,95.438,540.718,538.786,0.0
53724.0,STARLINK-4663,PAYLOAD,2023-05-26 05:31:00,15.0883775,0.000104,53.2148,145.9606,68.1471,291.9631,4.8576e-05,4.85e-06,0.0,0 STARLINK-4663,1 53724U 22107AA  23146.22986157  .00000485  00000-0  48576-4 0  9990,2 53724  53.2148 145.9606 0001040  68.1471 291.9631 15.08837750 40660,6917.887,95.438,540.472,539.033,0.0
53724.0,STARLINK-4663,PAYLOAD,2023-05-27 08:32:33,15.08838696,0.0001066,53.2151,140.9043,87.9634,272.148,3.8951e-05,3.32e-06,0.0,0 STARLINK-4663,1 53724U 22107AA  23147.35594132  .00000332  00000-0  38951-4 0  9990,2 53724  53.2151 140.9043 0001066  87.9634 272.1480 15.08838696 40373,6917.884,95.438,540.487,539.012,0.0
53724.0,STARLINK-4663,PAYLOAD,2023-05-27 16:29:29,15.08837733,0.0001039,53.2151,139.4174,89.8643,270.2469,5.314e-05,5.58e-06,0.0,0 STARLINK-4663,1 53724U 22107AA  23147.68714188  .00000558  00000-0  53140-4 0  9998,2 53724  53.2151 139.4174 0001039  89.8643 270.2469 15.08837733 40885,6917.887,95.438,540.471,539.034,0.0
53724.0,STARLINK-4663,PAYLOAD,2023-05-28 05:12:34,15.08839435,0.0001049,53.2153,137.0383,89.5042,270.607,8.0361e-05,9.91e-06,0.0,0 STARLINK-4663,1 53724U 22107AA  23148.21706103  .00000991  00000-0  80361-4 0  9992,2 53724  53.2153 137.0383 0001049  89.5042 270.6070 15.08839435 40966,6917.882,95.438,540.473,539.021,0.0
53724.0,STARLINK-4663,PAYLOAD,2023-05-28 16:20:16,15.08840119,0.0001055,53.2154,134.9567,88.9853,271.126,7.8278e-05,9.58e-06,0.0,0 STARLINK-4663,1 53724U 22107AA  23148.68074114  .00000958  00000-0  78278-4 0  9990,2 53724  53.2154 134.9567 0001055  88.9853 271.1260 15.08840119 40572,6917.88,95.438,540.475,539.015,0.0
53724.0,STARLINK-4663,PAYLOAD,2023-05-29 06:38:44,15.08841915,0.0001108,53.2156,132.2805,88.2627,271.8492,7.8802e-05,9.67e-06,0.0,0 STARLINK-4663,1 53724U 22107AA  23149.27690030  .00000967  00000-0  78802-4 0  9990,2 53724  53.2156 132.2805 0001108  88.2627 271.8492 15.08841915 41122,6917.875,95.437,540.506,538.973,0.0
53724.0,STARLINK-4663,PAYLOAD,2023-05-29 16:11:03,15.08840996,0.0001107,53.2157,130.4964,87.608,272.5038,6.0817e-05,6.8e-06,0.0,0 STARLINK-4663,1 53724U 22107AA  23149.67434111  .00000680  00000-0  60817-4 0  9999,2 53724  53.2157 130.4964 0001107  87.6080 272.5038 15.08840996 41182,6917.877,95.437,540.508,538.977,0.0
53724.0,STARLINK-4663,PAYLOAD,2023-05-30 04:54:08,15.08842283,0.000112,53.2158,128.1177,88.6149,271.4971,5.568e-05,5.98e-06,0.0,0 STARLINK-4663,1 53724U 22107AA  23150.20426039  .00000598  00000-0  55680-4 0  9990,2 53724  53.2158 128.1177 0001120  88.6149 271.4971 15.08842283 40808,6917.873,95.437,540.513,538.964,0.0
53724.0,STARLINK-4663,PAYLOAD,2023-05-31 04:44:54,15.08844137,0.0001144,53.2159,123.6566,93.8331,266.2792,7.6502e-05,9.3e-06,0.0,0 STARLINK-4663,1 53724U 22107AA  23151.19785821  .00000930  00000-0  76502-4 0  9992,2 53724  53.2159 123.6566 0001144  93.8331 266.2792 15.08844137 41419,6917.868,95.437,540.524,538.941,0.0
53724.0,STARLINK-4663,PAYLOAD,2023-06-01 01:24:56,15.08835411,0.0001107,53.216,119.7909,94.3117,265.8002,1.5901e-05,-3.5e-07,0.0,0 STARLINK-4663,1 53724U 22107AA  23152.05898583 -.00000035  00000-0  15901-4 0  9991,2 53724  53.2160 119.7909 0001107  94.3117 265.8002 15.08835411 41082,6917.894,95.438,540.525,538.994,0.0
53724.0,STARLINK-4663,PAYLOAD,2023-06-01 04:35:42,15.08838917,0.0001123,53.2158,119.1956,96.9271,263.1849,4.0691e-05,3.6e-06,0.0,0 STARLINK-4663,1 53724U 22107AA  23152.19146308  .00000360  00000-0  40691-4 0  9991,2 53724  53.2158 119.1956 0001123  96.9271 263.1849 15.08838917 41569,6917.884,95.438,540.526,538.972,0.0
53724.0,STARLINK-4663,PAYLOAD,2023-06-01 22:04:57,15.08838854,0.0001111,53.216,115.9253,97.4552,262.6566,2.4238e-05,9.8e-07,0.0,0 STARLINK-4663,1 53724U 22107AA  23152.92010464  .00000098  00000-0  24238-4 0  9992,2 53724  53.2160 115.9253 0001111  97.4552 262.6566 15.08838854 41673,6917.884,95.438,540.517,538.98,0.0
53724.0,STARLINK-4663,PAYLOAD,2023-06-02 02:51:06,15.0884063,0.0001108,53.216,115.0333,97.1158,262.996,3.6881e-05,2.99e-06,0.0,0 STARLINK-4663,1 53724U 22107AA  23153.11882305  .00000299  00000-0  36881-4 0  9995,2 53724  53.2160 115.0333 0001108  97.1158 262.9960 15.08840630 41247,6917.878,95.438,540.51,538.977,0.0
